{"fetched_at":"2026-07-15T17:46:51.301Z","source":"https://celestrak.org/NORAD/elements/gp.php?GROUP=spire&FORMAT=JSON","constellation":"spire","records":[{"OBJECT_NAME":"LEMUR-2-HUBBLE-4","OBJECT_ID":"2025-135AP","EPOCH":"2026-07-14T22:33:54.659808","CLASSIFICATION_TYPE":"U","MEAN_MOTION":14.93685564,"ECCENTRICITY":0.0002651,"INCLINATION":97.7719,"RA_OF_ASC_NODE":309.5247,"ARG_OF_PERICENTER":162.7067,"MEAN_ANOMALY":197.4243,"EPHEMERIS_TYPE":0,"NORAD_CAT_ID":64565,"ELEMENT_SET_NO":999,"REV_AT_EPOCH":5801,"BSTAR":0.0000936,"MEAN_MOTION_DOT":0.00000933,"MEAN_MOTION_DDOT":0},{"OBJECT_NAME":"LEMUR-2-SEJONG-2","OBJECT_ID":"2025-135BL","EPOCH":"2026-07-15T05:57:31.300416","CLASSIFICATION_TYPE":"U","MEAN_MOTION":14.969119,"ECCENTRICITY":0.0003971,"INCLINATION":97.7708,"RA_OF_ASC_NODE":311.0834,"ARG_OF_PERICENTER":218.5313,"MEAN_ANOMALY":141.5625,"EPHEMERIS_TYPE":0,"NORAD_CAT_ID":64586,"ELEMENT_SET_NO":999,"REV_AT_EPOCH":5814,"BSTAR":0.00019331,"MEAN_MOTION_DOT":0.00002161,"MEAN_MOTION_DDOT":0},{"OBJECT_NAME":"LEMUR-2-HUBBLE-5","OBJECT_ID":"2025-135BT","EPOCH":"2026-07-15T03:36:03.415392","CLASSIFICATION_TYPE":"U","MEAN_MOTION":14.94213621,"ECCENTRICITY":0.0004314,"INCLINATION":97.7741,"RA_OF_ASC_NODE":310.401,"ARG_OF_PERICENTER":235.4221,"MEAN_ANOMALY":124.6592,"EPHEMERIS_TYPE":0,"NORAD_CAT_ID":64840,"ELEMENT_SET_NO":999,"REV_AT_EPOCH":5808,"BSTAR":0.000070218,"MEAN_MOTION_DOT":0.00000695,"MEAN_MOTION_DDOT":0},{"OBJECT_NAME":"LEMUR-2-KARENDARRELL","OBJECT_ID":"2025-135BU","EPOCH":"2026-07-14T20:42:45.582048","CLASSIFICATION_TYPE":"U","MEAN_MOTION":15.00496961,"ECCENTRICITY":0.0012409,"INCLINATION":97.7716,"RA_OF_ASC_NODE":312.0347,"ARG_OF_PERICENTER":105.817,"MEAN_ANOMALY":254.4422,"EPHEMERIS_TYPE":0,"NORAD_CAT_ID":64841,"ELEMENT_SET_NO":999,"REV_AT_EPOCH":5816,"BSTAR":0.00033968,"MEAN_MOTION_DOT":0.00004225,"MEAN_MOTION_DDOT":0},{"OBJECT_NAME":"LEMUR-2-LUCILLE-ROSE","OBJECT_ID":"2025-135BV","EPOCH":"2026-07-14T20:04:31.574784","CLASSIFICATION_TYPE":"U","MEAN_MOTION":15.00486338,"ECCENTRICITY":0.00148827,"INCLINATION":97.7711,"RA_OF_ASC_NODE":312.0433,"ARG_OF_PERICENTER":190.0513,"MEAN_ANOMALY":170.0415,"EPHEMERIS_TYPE":0,"NORAD_CAT_ID":65403,"ELEMENT_SET_NO":999,"REV_AT_EPOCH":5278,"BSTAR":0.00027829675,"MEAN_MOTION_DOT":0.00003451,"MEAN_MOTION_DDOT":0},{"OBJECT_NAME":"LEMUR-2-AFFIE-WAUWIE","OBJECT_ID":"2025-248C","EPOCH":"2026-07-14T09:19:56.627040","CLASSIFICATION_TYPE":"U","MEAN_MOTION":15.28229453,"ECCENTRICITY":0.00087596,"INCLINATION":45.3893,"RA_OF_ASC_NODE":327.4899,"ARG_OF_PERICENTER":246.6108,"MEAN_ANOMALY":113.386,"EPHEMERIS_TYPE":0,"NORAD_CAT_ID":66295,"ELEMENT_SET_NO":999,"REV_AT_EPOCH":3875,"BSTAR":0.00047322499,"MEAN_MOTION_DOT":0.00012991,"MEAN_MOTION_DDOT":0},{"OBJECT_NAME":"OTTER SDM","OBJECT_ID":"2025-276N","EPOCH":"2026-07-15T03:54:58.180032","CLASSIFICATION_TYPE":"U","MEAN_MOTION":15.2005668,"ECCENTRICITY":0.0004296,"INCLINATION":97.4206,"RA_OF_ASC_NODE":269.1787,"ARG_OF_PERICENTER":254.0411,"MEAN_ANOMALY":106.0351,"EPHEMERIS_TYPE":0,"NORAD_CAT_ID":66678,"ELEMENT_SET_NO":999,"REV_AT_EPOCH":3466,"BSTAR":0.00016803,"MEAN_MOTION_DOT":0.00003557,"MEAN_MOTION_DDOT":0},{"OBJECT_NAME":"LEMUR-2-STAS-GORBUK","OBJECT_ID":"2025-276W","EPOCH":"2026-07-15T04:25:49.159200","CLASSIFICATION_TYPE":"U","MEAN_MOTION":15.19658337,"ECCENTRICITY":0.0003614,"INCLINATION":97.424,"RA_OF_ASC_NODE":269.2517,"ARG_OF_PERICENTER":248.2139,"MEAN_ANOMALY":111.8711,"EPHEMERIS_TYPE":0,"NORAD_CAT_ID":66686,"ELEMENT_SET_NO":999,"REV_AT_EPOCH":3466,"BSTAR":0.00013639,"MEAN_MOTION_DOT":0.00002841,"MEAN_MOTION_DDOT":0},{"OBJECT_NAME":"LEMUR-2-TEODOR","OBJECT_ID":"2025-276DG","EPOCH":"2026-07-15T03:18:09.698400","CLASSIFICATION_TYPE":"U","MEAN_MOTION":15.21337141,"ECCENTRICITY":0.0002214,"INCLINATION":97.4145,"RA_OF_ASC_NODE":269.4772,"ARG_OF_PERICENTER":86.8721,"MEAN_ANOMALY":273.2768,"EPHEMERIS_TYPE":0,"NORAD_CAT_ID":66768,"ELEMENT_SET_NO":999,"REV_AT_EPOCH":3469,"BSTAR":0.00014786,"MEAN_MOTION_DOT":0.00003242,"MEAN_MOTION_DDOT":0},{"OBJECT_NAME":"LEMUR-2-LAILA","OBJECT_ID":"2025-276DQ","EPOCH":"2026-07-15T04:09:23.256576","CLASSIFICATION_TYPE":"U","MEAN_MOTION":15.21563113,"ECCENTRICITY":0.0002925,"INCLINATION":97.4169,"RA_OF_ASC_NODE":269.6508,"ARG_OF_PERICENTER":94.5398,"MEAN_ANOMALY":265.6172,"EPHEMERIS_TYPE":0,"NORAD_CAT_ID":66776,"ELEMENT_SET_NO":999,"REV_AT_EPOCH":3470,"BSTAR":0.00013678,"MEAN_MOTION_DOT":0.00003014,"MEAN_MOTION_DDOT":0},{"OBJECT_NAME":"LEMUR-2-CELIJO-SB-PK","OBJECT_ID":"2025-276DW","EPOCH":"2026-07-15T04:26:13.735680","CLASSIFICATION_TYPE":"U","MEAN_MOTION":15.00282855,"ECCENTRICITY":0.0007031,"INCLINATION":97.5197,"RA_OF_ASC_NODE":266.0383,"ARG_OF_PERICENTER":64.1114,"MEAN_ANOMALY":296.0834,"EPHEMERIS_TYPE":0,"NORAD_CAT_ID":66781,"ELEMENT_SET_NO":999,"REV_AT_EPOCH":2682,"BSTAR":0.00021423,"MEAN_MOTION_DOT":0.00002627,"MEAN_MOTION_DDOT":0},{"OBJECT_NAME":"LEMUR-2-FINNIAN","OBJECT_ID":"2025-276DX","EPOCH":"2026-07-14T10:07:12.706176","CLASSIFICATION_TYPE":"U","MEAN_MOTION":15.00610397,"ECCENTRICITY":0.00084412,"INCLINATION":97.5382,"RA_OF_ASC_NODE":265.5655,"ARG_OF_PERICENTER":359.1143,"MEAN_ANOMALY":1.0065,"EPHEMERIS_TYPE":0,"NORAD_CAT_ID":66782,"ELEMENT_SET_NO":999,"REV_AT_EPOCH":2408,"BSTAR":0.00013038039,"MEAN_MOTION_DOT":0.0000159,"MEAN_MOTION_DDOT":0},{"OBJECT_NAME":"LEMUR-2-STARLIGHT","OBJECT_ID":"2025-276DY","EPOCH":"2026-07-15T03:15:27.185184","CLASSIFICATION_TYPE":"U","MEAN_MOTION":14.99354208,"ECCENTRICITY":0.0014726,"INCLINATION":97.5237,"RA_OF_ASC_NODE":265.8187,"ARG_OF_PERICENTER":47.7053,"MEAN_ANOMALY":312.5417,"EPHEMERIS_TYPE":0,"NORAD_CAT_ID":66783,"ELEMENT_SET_NO":999,"REV_AT_EPOCH":3438,"BSTAR":0.00030359,"MEAN_MOTION_DOT":0.00003663,"MEAN_MOTION_DDOT":0},{"OBJECT_NAME":"LEMUR-2-TARTIFLETTE","OBJECT_ID":"2025-276DZ","EPOCH":"2026-07-15T03:13:08.929632","CLASSIFICATION_TYPE":"U","MEAN_MOTION":14.99339516,"ECCENTRICITY":0.001393,"INCLINATION":97.5234,"RA_OF_ASC_NODE":265.8257,"ARG_OF_PERICENTER":55.8396,"MEAN_ANOMALY":304.4146,"EPHEMERIS_TYPE":0,"NORAD_CAT_ID":66784,"ELEMENT_SET_NO":999,"REV_AT_EPOCH":3438,"BSTAR":0.00028834,"MEAN_MOTION_DOT":0.00003474,"MEAN_MOTION_DDOT":0},{"OBJECT_NAME":"LEMUR-2-VUKASIN","OBJECT_ID":"2025-276EA","EPOCH":"2026-07-15T04:06:33.573024","CLASSIFICATION_TYPE":"U","MEAN_MOTION":15.00546276,"ECCENTRICITY":0.0003058,"INCLINATION":97.5225,"RA_OF_ASC_NODE":266.2203,"ARG_OF_PERICENTER":55.3107,"MEAN_ANOMALY":304.8405,"EPHEMERIS_TYPE":0,"NORAD_CAT_ID":66785,"ELEMENT_SET_NO":999,"REV_AT_EPOCH":3434,"BSTAR":0.00019749,"MEAN_MOTION_DOT":0.00002434,"MEAN_MOTION_DDOT":0},{"OBJECT_NAME":"LEMUR-2-HOTSPUR-TOM","OBJECT_ID":"2025-276EB","EPOCH":"2026-07-15T03:05:04.909056","CLASSIFICATION_TYPE":"U","MEAN_MOTION":14.992406,"ECCENTRICITY":0.0013794,"INCLINATION":97.5219,"RA_OF_ASC_NODE":265.7945,"ARG_OF_PERICENTER":47.1826,"MEAN_ANOMALY":313.0554,"EPHEMERIS_TYPE":0,"NORAD_CAT_ID":66786,"ELEMENT_SET_NO":999,"REV_AT_EPOCH":3431,"BSTAR":0.0002471,"MEAN_MOTION_DOT":0.00002961,"MEAN_MOTION_DDOT":0}]}
